     2.100          NAVIGATION                              RINEX VERSION / TYPE
fic2rin                                 08/03/2012 00:29:06 PGM / RUN BY / DATE
                                                            END OF HEADER
30 12  8  2  1 59 28.0 -.335784628987D-03 -.255795384874D-10  .000000000000D+00
     .200000000000D+02 -.198750000000D+02  .483805866742D-08 -.530988555108D+00
    -.968575477600D-06  .112368426053D-01  .992789864540D-06  .515368654251D+04
     .352768000000D+06 -.113621354103D-06  .172896128757D+01  .465661287308D-07
     .960364118037D+00  .362031250000D+03  .158999796191D+01 -.876107921983D-08
     .607168148133D-10  .100000000000D+01  .169900000000D+04  .000000000000D+00
     .485000000000D+01  .000000000000D+00 -.419095158577D-08  .200000000000D+02
     .345606000000D+06  .400000000000D+01
 1 12  8  2  1 59 44.0  .267957802862D-03  .147792889038D-11  .000000000000D+00
     .800000000000D+01  .438437500000D+02  .470091009749D-08 -.269138909879D+01
     .220537185669D-05  .983361154795D-03  .979751348495D-05  .515364435005D+04
     .352784000000D+06 -.204890966415D-07 -.236234502351D+01  .931322574615D-08
     .960150154565D+00  .192218750000D+03  .290364859205D+00 -.801569102856D-08
     .713601152924D-09  .100000000000D+01  .169900000000D+04  .000000000000D+00
     .240000000000D+01  .000000000000D+00  .838190317154D-08  .800000000000D+01
     .345606000000D+06  .400000000000D+01
 2 12  8  2  2  0  0.0  .398628413677D-03  .113686837722D-11  .000000000000D+00
     .190000000000D+02  .333750000000D+02  .518378735412D-08 -.180250142748D+01
     .172108411789D-05  .113615297014D-01  .970810651779D-05  .515373411369D+04
     .352800000000D+06  .176951289177D-06 -.237752466234D+01 -.124797224998D-06
     .938697446939D+00  .179093750000D+03 -.275417917098D+01 -.821641367518D-08
     .836820571221D-09  .100000000000D+01  .169900000000D+04  .000000000000D+00
     .240000000000D+01  .000000000000D+00 -.172294676304D-07  .190000000000D+02
     .345606000000D+06  .400000000000D+01
 3 12  8  2  2  0  0.0  .828830525279D-04  .477484718431D-11  .000000000000D+00
     .800000000000D+02 -.111343750000D+03  .500270838288D-08 -.163065587417D+01
    -.563450157642D-05  .156449988717D-01  .921264290810D-05  .515373234749D+04
     .352800000000D+06  .329688191414D-06  .274121011402D+01  .167638063431D-06
     .932167744277D+00  .178406250000D+03  .121400327613D+01 -.816391148825D-08
    -.107861635727D-09  .100000000000D+01  .169900000000D+04  .000000000000D+00
     .340000000000D+01  .000000000000D+00 -.465661287308D-08  .800000000000D+02
     .345606000000D+06  .400000000000D+01
 4 12  8  2  2  0  0.0  .261761248112D-03  .113686837722D-10  .000000000000D+00
     .200000000000D+02  .337500000000D+02  .529307762079D-08  .143497444070D+01
     .190362334251D-05  .100796613842D-01  .100638717413D-04  .515363504219D+04
     .352800000000D+06 -.193715095520D-06 -.236071544980D+01  .128522515297D-06
     .937736099101D+00  .177062500000D+03  .876741712040D+00 -.842749389609D-08
     .670742224820D-09  .100000000000D+01  .169900000000D+04  .000000000000D+00
     .240000000000D+01  .000000000000D+00 -.651925802231D-08  .200000000000D+02
     .345606000000D+06  .400000000000D+01
 5 12  8  2  2  0  0.0 -.339956022799D-03 -.329691829393D-11  .000000000000D+00
     .690000000000D+02 -.193437500000D+02  .540808241120D-08  .345276533834D+00
    -.103190541267D-05  .275292212609D-02  .416859984398D-05  .515370221329D+04
     .352800000000D+06  .000000000000D+00 -.131347325717D+01  .111758708954D-07
     .950041962638D+00  .289375000000D+03  .198332220556D+00 -.853785563596D-08
    -.345014371233D-09  .100000000000D+01  .169900000000D+04  .000000000000D+00
     .240000000000D+01  .000000000000D+00 -.102445483208D-07  .690000000000D+02
     .345606000000D+06  .400000000000D+01
 6 12  8  2  2  0  0.0 -.190502032638D-05 -.613908923697D-11  .000000000000D+00
     .200000000000D+02 -.114875000000D+03  .487913180685D-08  .241112029661D+00
    -.602379441261D-05  .733678427059D-02  .997073948383D-05  .515369201279D+04
     .352800000000D+06  .800937414169D-07  .281832525120D+01 -.106170773506D-06
     .939037958677D+00  .176562500000D+03 -.478762754185D+00 -.830713173967D-08
    -.878608026122D-10  .100000000000D+01  .169900000000D+04  .000000000000D+00
     .240000000000D+01  .000000000000D+00 -.512227416039D-08  .200000000000D+02
     .345606000000D+06  .400000000000D+01
 7 12  8  2  2  0  0.0  .106538645923D-03  .397903932026D-11  .000000000000D+00
     .560000000000D+02  .149250000000D+03  .401838166744D-08 -.313904259427D+01
     .773184001446D-05  .576416833792D-02  .694580376148D-05  .515373271370D+04
     .352800000000D+06 -.745058059692D-08  .798185319668D+00 -.409781932831D-07
     .975945180126D+00  .254375000000D+03 -.302007603043D+01 -.794283085079D-08
     .441089801732D-09  .100000000000D+01  .169900000000D+04  .000000000000D+00
     .240000000000D+01  .000000000000D+00 -.107102096081D-07  .560000000000D+02
     .345606000000D+06  .400000000000D+01
 8 12  8  2  2  0  0.0  .186869874597D-05  .113686837722D-12  .000000000000D+00
     .113000000000D+03  .146375000000D+03  .365300930536D-08  .244134582552D+01
     .745803117752D-05  .125239000190D-01  .662915408611D-05  .515366524124D+04
     .352800000000D+06 -.193715095520D-06  .882938539397D+00  .000000000000D+00
     .998160771734D+00  .271906250000D+03 -.295552165563D+01 -.776460914142D-08
     .407874132452D-09  .100000000000D+01  .169900000000D+04  .000000000000D+00
     .340000000000D+01  .000000000000D+00 -.419095158577D-08  .113000000000D+03
     .345606000000D+06  .400000000000D+01
 9 12  8  2  2  0  0.0  .175795052201D-03  .261479726760D-11  .000000000000D+00
     .300000000000D+02  .139375000000D+03  .368622497464D-08  .244471697833D+01
     .718608498573D-05  .174673285801D-01  .733695924282D-05  .515361685562D+04
     .352800000000D+06  .186264514923D-06  .772927278312D+00 -.409781932831D-07
     .984679206287D+00  .243718750000D+03  .163957782240D+01 -.753674250701D-08
     .311084386485D-09  .100000000000D+01  .169900000000D+04  .000000000000D+00
     .240000000000D+01  .000000000000D+00 -.558793544769D-08  .300000000000D+02
     .345606000000D+06  .400000000000D+01
10 12  8  2  2  0  0.0 -.468203797936D-04 -.125055521494D-11  .000000000000D+00
     .108000000000D+03 -.188750000000D+02  .559380443298D-08  .578974580981D+00
    -.739470124245D-06  .114314742386D-01  .440143048763D-05  .515370116806D+04
     .352800000000D+06 -.521540641785D-07 -.129228094457D+01  .137835741043D-06
     .944920930127D+00  .284062500000D+03  .753651218701D+00 -.875357890741D-08
    -.426803492364D-09  .100000000000D+01  .169900000000D+04  .000000000000D+00
     .340000000000D+01  .000000000000D+00 -.232830643654D-08  .108000000000D+03
     .345606000000D+06  .400000000000D+01
11 12  8  2  2  0  0.0 -.287874136120D-03 -.386535248253D-11  .000000000000D+00
     .670000000000D+02  .237812500000D+02  .599382109528D-08 -.304680226514D+01
     .970438122749D-06  .131938534323D-01  .116303563118D-04  .515368445206D+04
     .352800000000D+06  .931322574615D-07 -.263717524925D+01 -.158324837685D-06
     .888509195392D+00  .113531250000D+03  .106922849670D+01 -.844356599413D-08
     .650384233971D-09  .100000000000D+01  .169900000000D+04  .000000000000D+00
     .240000000000D+01  .000000000000D+00 -.121071934700D-07  .670000000000D+02
     .345606000000D+06  .400000000000D+01
12 12  8  2  2  0  0.0  .831703655422D-04  .204636307899D-11  .000000000000D+00
     .720000000000D+02 -.430625000000D+02  .434660962517D-08  .275600557300D+01
    -.219605863094D-05  .402741238941D-02  .940635800362D-06  .515374549103D+04
     .352800000000D+06 -.167638063431D-07  .185537765348D+01  .521540641785D-07
     .980346373556D+00  .370250000000D+03  .127279881101D+00 -.831606068302D-08
    -.785747015231D-10  .100000000000D+01  .169900000000D+04  .000000000000D+00
     .240000000000D+01  .000000000000D+00 -.121071934700D-07  .720000000000D+02
     .345606000000D+06  .400000000000D+01
13 12  8  2  2  0  0.0  .190731137991D-03 -.250111042988D-11  .000000000000D+00
     .860000000000D+02  .333437500000D+02  .363479426091D-08 -.928457849859D+00
     .161305069923D-05  .489171058871D-02  .132117420435D-04  .515364277458D+04
     .352800000000D+06 -.521540641785D-07 -.171036512792D+00 -.149011611938D-07
     .985323844065D+00  .138218750000D+03  .205900529809D+01 -.755852912879D-08
    -.485020203038D-09  .100000000000D+01  .169900000000D+04  .000000000000D+00
     .240000000000D+01  .000000000000D+00 -.111758708954D-07  .860000000000D+02
     .345606000000D+06  .400000000000D+01
14 12  8  2  2  0  0.0  .208774581552D-03  .113686837722D-11  .000000000000D+00
     .420000000000D+02  .190937500000D+02  .390480550797D-08 -.673918521697D+00
     .948086380959D-06  .664229772519D-02  .119786709547D-04  .515362420845D+04
     .352800000000D+06 -.167638063431D-07 -.198174765220D+00  .137835741043D-06
     .978113536321D+00  .159937500000D+03 -.206567237461D+01 -.774996567432D-08
    -.528593446610D-09  .100000000000D+01  .169900000000D+04  .000000000000D+00
     .240000000000D+01  .000000000000D+00 -.931322574615D-08  .420000000000D+02
     .345606000000D+06  .400000000000D+01
15 12  8  2  2  0  0.0 -.931872054935D-04 -.454747350886D-12  .000000000000D+00
     .340000000000D+02 -.556250000000D+01  .457340478638D-08 -.112312715030D+01
    -.249594449997D-06  .448817992583D-02  .123698264360D-04  .515360508537D+04
     .352800000000D+06 -.186264514923D-07 -.288104052439D+00 -.173225998878D-06
     .944831092327D+00  .134781250000D+03  .382464410264D-01 -.794925969000D-08
    -.627526138983D-09  .100000000000D+01  .169900000000D+04  .000000000000D+00
     .240000000000D+01  .000000000000D+00 -.102445483208D-07  .340000000000D+02
     .345606000000D+06  .400000000000D+01
